OBJECT_NAME,OBJECT_ID,EPOCH,MEAN_MOTION,ECCENTRICITY,INCLINATION,RA_OF_ASC_NODE,ARG_OF_PERICENTER,MEAN_ANOMALY,EPHEMERIS_TYPE,CLASSIFICATION_TYPE,NORAD_CAT_ID,ELEMENT_SET_NO,REV_AT_EPOCH,BSTAR,MEAN_MOTION_DOT,MEAN_MOTION_DDOT
IRIDIUM 113,2017-039A,2026-06-07T18:02:39.199776,14.34217949,.0002309,86.3964,326.1241,89.9525,270.1935,0,U,42803,999,46983,.56934E-4,.179E-5,0
NORSAT 2,2017-042D,2026-06-07T18:09:31.828032,15.21746028,.0010863,97.4044,332.3490,86.2819,273.9659,0,U,42828,999,48630,.52708E-3,.11904E-3,0
TECHNOSAT,2017-042E,2026-06-07T16:11:31.085376,15.04898031,.0018897,97.4269,316.6964,124.1453,236.1569,0,U,42829,999,48527,.23914E-3,.3338E-4,0
FLYING LAPTOP,2017-042G,2026-06-07T20:28:41.610432,15.01086338,.0019102,97.4657,314.7486,152.1285,208.0967,0,U,42831,999,48505,.33092E-3,.4192E-4,0
WNISAT 1R,2017-042L,2026-06-07T16:43:33.557088,15.01722538,.0009999,97.4834,315.1593,180.5620,179.5596,0,U,42835,999,48508,.23343E-3,.2982E-4,0
LEMUR-2-GREENBERG,2017-042N,2026-06-07T17:48:13.876128,15.31038817,.0009442,97.3822,339.4126,46.4397,313.7626,0,U,42837,999,48694,.58709E-3,.17572E-3,0
LEMUR-2-FURIAUS,2017-042R,2026-06-07T11:12:54.347616,15.29931512,.0008535,97.3773,337.1173,98.8266,261.3941,0,U,42840,999,48672,.6248E-3,.18073E-3,0
CORVUS BC2,2017-042X,2026-06-07T08:42:43.938720,15.06234837,.0014175,97.4064,320.0966,140.1884,220.0387,0,U,42846,999,48558,.23617E-3,.3412E-4,0
CORVUS BC1,2017-042Y,2026-06-07T10:12:13.277088,15.06402708,.001334,97.4088,320.9640,118.9612,241.2955,0,U,42847,999,48562,.222E-3,.3217E-4,0
VRSS-2,2017-060A,2026-06-07T20:44:55.285728,14.81179214,.0018229,97.6515,197.0114,126.8681,233.4206,0,U,42954,999,46707,.15187E-3,.1135E-4,0
MOHAMMED VI-A,2017-070A,2026-06-07T20:41:49.960320,14.77057540,.000155,97.9553,231.3221,71.2794,288.8584,0,U,43005,999,46260,.937E-4,.61E-5,0
FENGYUN 3D,2017-072A,2026-06-07T20:16:20.548128,14.19737556,.0002648,99.0128,133.0986,77.1465,283.0006,0,U,43010,999,44366,.11158E-3,.19E-5,0
NOAA 20 (JPSS-1),2017-073A,2026-06-07T20:06:51.840000,14.19510103,.0000488,98.7769,98.3840,39.8818,320.2394,0,U,43013,999,44314,.54269E-4,.7E-6,0
MAKERSAT 0,2017-073D,2026-06-07T15:26:30.137568,15.31756990,.0106135,97.4640,41.0894,307.5668,51.5969,0,U,43016,999,46500,.58054E-3,.21201E-3,0
RADFXSAT (FOX-1B),2017-073E,2026-06-07T14:47:20.143104,15.12560328,.0150977,97.4720,26.0272,2.4483,357.7452,0,U,43017,999,46394,.42838E-3,.9816E-4,0
JILIN-1 04,2017-074A,2026-06-07T19:24:12.595968,15.42207475,.0003314,97.4846,268.1736,211.6143,148.4906,0,U,43022,999,47282,.30714E-3,.13102E-3,0
JILIN-1 05,2017-074B,2026-06-07T19:00:23.321376,15.33730021,.0003753,97.4853,264.8209,255.7260,104.3566,0,U,43023,999,47256,.26381E-3,.8526E-4,0
JILIN-1 06,2017-074C,2026-06-07T19:52:00.007104,15.33594218,.0005289,97.4779,261.8784,272.4428,87.6208,0,U,43024,999,47240,.18947E-3,.6074E-4,0
IRIDIUM 116,2017-083C,2026-06-07T17:26:07.120320,14.34217668,.0001879,86.3956,325.9577,92.8924,267.2487,0,U,43072,999,44281,.8292E-4,.252E-5,0
IRIDIUM 130,2017-083D,2026-06-07T13:19:31.107360,14.34218262,.000196,86.3968,326.3042,87.5243,272.6177,0,U,43073,999,44273,.81201E-4,.247E-5,0
LKW-2,2017-084A,2026-06-07T20:23:54.477312,15.26216680,.0000189,97.1198,199.0826,299.9103,60.2118,0,U,43080,999,47026,.25889E-3,.6632E-4,0
SUPERVIEW-1 03,2018-002A,2026-06-07T20:50:42.190368,15.38946891,.0046623,97.3128,243.7230,213.0593,146.7737,0,U,43099,999,46693,.41727E-3,.1663E-3,0
CARTOSAT-2F,2018-004A,2026-06-07T20:31:47.531136,15.19299756,.0000115,97.4785,218.5815,15.8912,344.2326,0,U,43111,999,46591,.15127E-3,.3124E-4,0
LKW-3,2018-006A,2026-06-07T20:43:02.145792,15.35068560,.0002941,97.6607,319.0761,3.0786,357.0474,0,U,43146,999,46728,.39224E-3,.13272E-3,0
ASNARO-2,2018-007A,2026-06-06T19:13:34.963104,15.22445139,.00018597,97.3978,164.8905,92.4479,267.6970,0,U,43152,999,46583,.48571448E-3,.11175E-3,0
JILIN-1 07,2018-008E,2026-06-07T18:27:03.208896,15.34566722,.0010238,97.1777,178.9495,92.7648,267.4768,0,U,43159,999,46355,.29557E-3,.984E-4,0
JILIN-1 08,2018-008F,2026-06-07T19:52:37.477920,15.33604827,.0008024,97.1809,178.3335,105.2797,254.9333,0,U,43160,999,46351,.22693E-3,.7303E-4,0
S-NET D,2018-014G,2026-06-07T16:43:59.382048,15.16583818,.0009706,97.5366,63.5470,58.8150,301.4033,0,U,43186,999,45732,.31213E-3,.6035E-4,0
S-NET B,2018-014H,2026-06-07T17:00:12.881952,15.16554248,.001028,97.5373,63.5445,54.4023,305.8167,0,U,43187,999,45732,.28835E-3,.5565E-4,0
