IRIDIUM 113             
1 42803U 17039A   26158.75184259  .00000179  00000+0  56934-4 0  9997
2 42803  86.3964 326.1241 0002309  89.9525 270.1935 14.34217949469837
NORSAT 2                
1 42828U 17042D   26158.75661838  .00011904  00000+0  52708-3 0  9993
2 42828  97.4044 332.3490 0010863  86.2819 273.9659 15.21746028486308
TECHNOSAT               
1 42829U 17042E   26158.67466534  .00003338  00000+0  23914-3 0  9990
2 42829  97.4269 316.6964 0018897 124.1453 236.1569 15.04898031485279
FLYING LAPTOP           
1 42831U 17042G   26158.85325938  .00004192  00000+0  33092-3 0  9992
2 42831  97.4657 314.7486 0019102 152.1285 208.0967 15.01086338485057
WNISAT 1R               
1 42835U 17042L   26158.69691617  .00002982  00000+0  23343-3 0  9991
2 42835  97.4834 315.1593 0009999 180.5620 179.5596 15.01722538485085
LEMUR-2-GREENBERG       
1 42837U 17042N   26158.74182727  .00017572  00000+0  58709-3 0  9991
2 42837  97.3822 339.4126 0009442  46.4397 313.7626 15.31038817486943
LEMUR-2-FURIAUS         
1 42840U 17042R   26158.46729569  .00018073  00000+0  62480-3 0  9993
2 42840  97.3773 337.1173 0008535  98.8266 261.3941 15.29931512486722
CORVUS BC2              
1 42846U 17042X   26158.36300855  .00003412  00000+0  23617-3 0  9991
2 42846  97.4064 320.0966 0014175 140.1884 220.0387 15.06234837485587
CORVUS BC1              
1 42847U 17042Y   26158.42515367  .00003217  00000+0  22200-3 0  9995
2 42847  97.4088 320.9640 0013340 118.9612 241.2955 15.06402708485622
VRSS-2                  
1 42954U 17060A   26158.86452877  .00001135  00000+0  15187-3 0  9991
2 42954  97.6515 197.0114 0018229 126.8681 233.4206 14.81179214467078
MOHAMMED VI-A           
1 43005U 17070A   26158.86238380  .00000610  00000+0  93700-4 0  9996
2 43005  97.9553 231.3221 0001550  71.2794 288.8584 14.77057540462608
FENGYUN 3D              
1 43010U 17072A   26158.84468227  .00000190  00000+0  11158-3 0  9996
2 43010  99.0128 133.0986 0002648  77.1465 283.0006 14.19737556443669
NOAA 20 (JPSS-1)        
1 43013U 17073A   26158.83810000  .00000070  00000+0  54269-4 0  9997
2 43013  98.7769  98.3840 0000488  39.8818 320.2394 14.19510103443142
MAKERSAT 0              
1 43016U 17073D   26158.64340437  .00021201  00000+0  58054-3 0  9995
2 43016  97.4640  41.0894 0106135 307.5668  51.5969 15.31756990465009
RADFXSAT (FOX-1B)       
1 43017U 17073E   26158.61620536  .00009816  00000+0  42838-3 0  9995
2 43017  97.4720  26.0272 0150977   2.4483 357.7452 15.12560328463947
JILIN-1 04              
1 43022U 17074A   26158.80847912  .00013102  00000+0  30714-3 0  9995
2 43022  97.4846 268.1736 0003314 211.6143 148.4906 15.42207475472825
JILIN-1 05              
1 43023U 17074B   26158.79193659  .00008526  00000+0  26381-3 0  9995
2 43023  97.4853 264.8209 0003753 255.7260 104.3566 15.33730021472560
JILIN-1 06              
1 43024U 17074C   26158.82777786  .00006074  00000+0  18947-3 0  9994
2 43024  97.4779 261.8784 0005289 272.4428  87.6208 15.33594218472406
IRIDIUM 116             
1 43072U 17083C   26158.72647130  .00000252  00000+0  82920-4 0  9990
2 43072  86.3956 325.9577 0001879  92.8924 267.2487 14.34217668442819
IRIDIUM 130             
1 43073U 17083D   26158.55522115  .00000247  00000+0  81201-4 0  9992
2 43073  86.3968 326.3042 0001960  87.5243 272.6177 14.34218262442739
LKW-2                   
1 43080U 17084A   26158.84993608  .00006632  00000+0  25889-3 0  9995
2 43080  97.1198 199.0826 0000189 299.9103  60.2118 15.26216680470262
SUPERVIEW-1 03          
1 43099U 18002A   26158.86854387  .00016630  00000+0  41727-3 0  9996
2 43099  97.3128 243.7230 0046623 213.0593 146.7737 15.38946891466939
CARTOSAT-2F             
1 43111U 18004A   26158.85541124  .00003124  00000+0  15127-3 0  9993
2 43111  97.4785 218.5815 0000115  15.8912 344.2326 15.19299756465918
LKW-3                   
1 43146U 18006A   26158.86321928  .00013272  00000+0  39224-3 0  9991
2 43146  97.6607 319.0761 0002941   3.0786 357.0474 15.35068560467288
ASNARO-2                
1 43152U 18007A   26157.80109911  .00011175  00000+0  48571-3 0  9993
2 43152  97.3978 164.8905 0001859  92.4479 267.6970 15.22445139465830
JILIN-1 07              
1 43159U 18008E   26158.76878714  .00009840  00000+0  29557-3 0  9990
2 43159  97.1777 178.9495 0010238  92.7648 267.4768 15.34566722463559
JILIN-1 08              
1 43160U 18008F   26158.82821155  .00007303  00000+0  22693-3 0  9992
2 43160  97.1809 178.3335 0008024 105.2797 254.9333 15.33604827463512
S-NET D                 
1 43186U 18014G   26158.69721507  .00006035  00000+0  31213-3 0  9991
2 43186  97.5366  63.5470 0009706  58.8150 301.4033 15.16583818457325
S-NET B                 
1 43187U 18014H   26158.70848243  .00005565  00000+0  28835-3 0  9994
2 43187  97.5373  63.5445 0010280  54.4023 305.8167 15.16554248457327
